{
  "type": "FeatureCollection",
  "features": [
    {
      "type": "Feature",
      "properties": {
        "norad_id": 50032,
        "name": "COSMOS 1408 DEB",
        "group": "cosmos-1408-debris",
        "lat": -40.256142100730806,
        "lon": -128.42934582188417,
        "alt_km": 429.8832678513718,
        "timestamp": "2025-12-25T16:53:14.933907+00:00",
        "meta_object_name": "COSMOS 1408 DEB",
        "meta_object_id": "1982-092RU",
        "meta_epoch": "2025-12-25T03:30:30.158496",
        "meta_mean_motion": 15.45815363,
        "meta_eccentricity": 0.00165175,
        "meta_inclination": 82.5629,
        "meta_ra_of_asc_node": 45.7917,
        "meta_arg_of_pericenter": 162.9312,
        "meta_mean_anomaly": 197.2496,
        "meta_ephemeris_type": 0,
        "meta_classification_type": "U",
        "meta_norad_cat_id": 50032,
        "meta_element_set_no": 999,
        "meta_rev_at_epoch": 22795,
        "meta_bstar": 0.00010820579,
        "meta_mean_motion_dot": 5.311e-05,
        "meta_mean_motion_ddot": 0,
        "tle_line1": "1 50032U 82092RU  25359.14618239  .00005311  00000+0  10821-3 0  9993",
        "tle_line2": "2 50032  82.5629  45.7917 0016517 162.9312 197.2496 15.45815363227955"
      },
      "geometry": {
        "type": "Point",
        "coordinates": [
          -128.42934582188417,
          -40.256142100730806
        ]
      }
    },
    {
      "type": "Feature",
      "properties": {
        "norad_id": 50058,
        "name": "COSMOS 1408 DEB",
        "group": "cosmos-1408-debris",
        "lat": -34.715706574746484,
        "lon": -119.07689210540308,
        "alt_km": 389.9427091329608,
        "timestamp": "2025-12-25T16:53:14.933928+00:00",
        "meta_object_name": "COSMOS 1408 DEB",
        "meta_object_id": "1982-092SW",
        "meta_epoch": "2025-12-25T05:13:47.166528",
        "meta_mean_motion": 15.6485274,
        "meta_eccentricity": 0.00158006,
        "meta_inclination": 82.6117,
        "meta_ra_of_asc_node": 56.274,
        "meta_arg_of_pericenter": 56.9176,
        "meta_mean_anomaly": 303.3598,
        "meta_ephemeris_type": 0,
        "meta_classification_type": "U",
        "meta_norad_cat_id": 50058,
        "meta_element_set_no": 999,
        "meta_rev_at_epoch": 22999,
        "meta_bstar": 0.00033022718,
        "meta_mean_motion_dot": 0.00032499,
        "meta_mean_motion_ddot": 0,
        "tle_line1": "1 50058U 82092SW  25359.21790702  .00032499  00000+0  33023-3 0  9991",
        "tle_line2": "2 50058  82.6117  56.2740 0015800  56.9176 303.3598 15.64852740229991"
      },
      "geometry": {
        "type": "Point",
        "coordinates": [
          -119.07689210540308,
          -34.715706574746484
        ]
      }
    },
    {
      "type": "Feature",
      "properties": {
        "norad_id": 50404,
        "name": "COSMOS 1408 DEB",
        "group": "cosmos-1408-debris",
        "lat": 9.748327872020027,
        "lon": 20.39194655476798,
        "alt_km": 409.358589781953,
        "timestamp": "2025-12-25T16:53:14.933942+00:00",
        "meta_object_name": "COSMOS 1408 DEB",
        "meta_object_id": "1982-092ADS",
        "meta_epoch": "2025-12-25T00:18:07.841664",
        "meta_mean_motion": 15.15742025,
        "meta_eccentricity": 0.01667949,
        "meta_inclination": 82.202,
        "meta_ra_of_asc_node": 202.4509,
        "meta_arg_of_pericenter": 156.6613,
        "meta_mean_anomaly": 204.2309,
        "meta_ephemeris_type": 0,
        "meta_classification_type": "U",
        "meta_norad_cat_id": 50404,
        "meta_element_set_no": 999,
        "meta_rev_at_epoch": 21379,
        "meta_bstar": 0.0033615862,
        "meta_mean_motion_dot": 0.00092417,
        "meta_mean_motion_ddot": 0,
        "tle_line1": "1 50404U 82092ADS 25359.01259076  .00092417  00000+0  33616-2 0  9991",
        "tle_line2": "2 50404  82.2020 202.4509 0166794 156.6613 204.2309 15.15742025213796"
      },
      "geometry": {
        "type": "Point",
        "coordinates": [
          20.39194655476798,
          9.748327872020027
        ]
      }
    },
    {
      "type": "Feature",
      "properties": {
        "norad_id": 50621,
        "name": "COSMOS 1408 DEB",
        "group": "cosmos-1408-debris",
        "lat": -61.24320662591852,
        "lon": -105.56191108479433,
        "alt_km": 416.8291817057134,
        "timestamp": "2025-12-25T16:53:14.933954+00:00",
        "meta_object_name": "COSMOS 1408 DEB",
        "meta_object_id": "1982-092ALR",
        "meta_epoch": "2025-12-24T10:33:08.293248",
        "meta_mean_motion": 15.57249647,
        "meta_eccentricity": 0.00291087,
        "meta_inclination": 82.5683,
        "meta_ra_of_asc_node": 61.9949,
        "meta_arg_of_pericenter": 110.4695,
        "meta_mean_anomaly": 249.969,
        "meta_ephemeris_type": 0,
        "meta_classification_type": "U",
        "meta_norad_cat_id": 50621,
        "meta_element_set_no": 999,
        "meta_rev_at_epoch": 22432,
        "meta_bstar": 0.00038535081,
        "meta_mean_motion_dot": 0.00028709,
        "meta_mean_motion_ddot": 0,
        "tle_line1": "1 50621U 82092ALR 25358.43967932  .00028709  00000+0  38535-3 0  9993",
        "tle_line2": "2 50621  82.5683  61.9949 0029108 110.4695 249.9690 15.57249647224324"
      },
      "geometry": {
        "type": "Point",
        "coordinates": [
          -105.56191108479433,
          -61.24320662591852
        ]
      }
    }
  ]
}